[{"OBJECT_NAME":"ONEWEB-0035","OBJECT_ID":"2020-008N","EPOCH":"2026-03-07T12:40:24.727872","MEAN_MOTION":13.10370919,"ECCENTRICITY":0.00019213,"INCLINATION":87.8762,"RA_OF_ASC_NODE":56.5218,"ARG_OF_PERICENTER":88.376,"MEAN_ANOMALY":271.7588,"EPHEMERIS_TYPE":0,"CLASSIFICATION_TYPE":"U","NORAD_CAT_ID":45143,"ELEMENT_SET_NO":999,"REV_AT_EPOCH":29462,"BSTAR":-0.0014634972,"MEAN_MOTION_DOT":-4.98e-6,"MEAN_MOTION_DDOT":0},{"OBJECT_NAME":"ONEWEB-0036","OBJECT_ID":"2020-008P","EPOCH":"2026-03-07T12:39:04.307616","MEAN_MOTION":13.09813851,"ECCENTRICITY":0.00016241,"INCLINATION":87.8776,"RA_OF_ASC_NODE":56.4929,"ARG_OF_PERICENTER":81.9508,"MEAN_ANOMALY":278.1803,"EPHEMERIS_TYPE":0,"CLASSIFICATION_TYPE":"U","NORAD_CAT_ID":45144,"ELEMENT_SET_NO":999,"REV_AT_EPOCH":29505,"BSTAR":-0.0018080848,"MEAN_MOTION_DOT":-6.13e-6,"MEAN_MOTION_DDOT":0},{"OBJECT_NAME":"ONEWEB-0038","OBJECT_ID":"2020-008Q","EPOCH":"2026-03-07T14:49:44.766336","MEAN_MOTION":13.11416327,"ECCENTRICITY":0.00021355,"INCLINATION":87.8867,"RA_OF_ASC_NODE":41.2597,"ARG_OF_PERICENTER":134.0146,"MEAN_ANOMALY":226.1158,"EPHEMERIS_TYPE":0,"CLASSIFICATION_TYPE":"U","NORAD_CAT_ID":45145,"ELEMENT_SET_NO":999,"REV_AT_EPOCH":29701,"BSTAR":0.00091801644,"MEAN_MOTION_DOT":3.38e-6,"MEAN_MOTION_DDOT":0},{"OBJECT_NAME":"ONEWEB-0039","OBJECT_ID":"2020-008R","EPOCH":"2026-03-07T12:01:00.028128","MEAN_MOTION":13.10372326,"ECCENTRICITY":0.00012951,"INCLINATION":87.8778,"RA_OF_ASC_NODE":56.511,"ARG_OF_PERICENTER":85.6861,"MEAN_ANOMALY":274.4415,"EPHEMERIS_TYPE":0,"CLASSIFICATION_TYPE":"U","NORAD_CAT_ID":45146,"ELEMENT_SET_NO":999,"REV_AT_EPOCH":29484,"BSTAR":0.001767871,"MEAN_MOTION_DOT":6.3e-6,"MEAN_MOTION_DDOT":0},{"OBJECT_NAME":"ONEWEB-0040","OBJECT_ID":"2020-008S","EPOCH":"2026-03-07T11:51:26.949888","MEAN_MOTION":13.10373873,"ECCENTRICITY":0.00017979,"INCLINATION":87.8768,"RA_OF_ASC_NODE":56.529,"ARG_OF_PERICENTER":90.2087,"MEAN_ANOMALY":269.9247,"EPHEMERIS_TYPE":0,"CLASSIFICATION_TYPE":"U","NORAD_CAT_ID":45147,"ELEMENT_SET_NO":999,"REV_AT_EPOCH":29454,"BSTAR":0.0019094734,"MEAN_MOTION_DOT":6.79e-6,"MEAN_MOTION_DDOT":0},{"OBJECT_NAME":"ONEWEB-0043","OBJECT_ID":"2020-008U","EPOCH":"2026-03-07T11:53:49.768224","MEAN_MOTION":13.10373612,"ECCENTRICITY":0.00012632,"INCLINATION":87.8774,"RA_OF_ASC_NODE":56.5116,"ARG_OF_PERICENTER":81.8798,"MEAN_ANOMALY":278.2473,"EPHEMERIS_TYPE":0,"CLASSIFICATION_TYPE":"U","NORAD_CAT_ID":45149,"ELEMENT_SET_NO":999,"REV_AT_EPOCH":29486,"BSTAR":0.0017669337,"MEAN_MOTION_DOT":6.3e-6,"MEAN_MOTION_DDOT":0},{"OBJECT_NAME":"ONEWEB-0044","OBJECT_ID":"2020-008V","EPOCH":"2026-03-07T12:34:26.439168","MEAN_MOTION":13.1037033,"ECCENTRICITY":0.0001645,"INCLINATION":87.8774,"RA_OF_ASC_NODE":56.5018,"ARG_OF_PERICENTER":88.87,"MEAN_ANOMALY":271.2616,"EPHEMERIS_TYPE":0,"CLASSIFICATION_TYPE":"U","NORAD_CAT_ID":45150,"ELEMENT_SET_NO":999,"REV_AT_EPOCH":29516,"BSTAR":-0.0011613623,"MEAN_MOTION_DOT":-3.93e-6,"MEAN_MOTION_DDOT":0},{"OBJECT_NAME":"ONEWEB-0045","OBJECT_ID":"2020-008W","EPOCH":"2026-03-07T11:02:29.614272","MEAN_MOTION":13.11415354,"ECCENTRICITY":0.00017206,"INCLINATION":87.8868,"RA_OF_ASC_NODE":41.2782,"ARG_OF_PERICENTER":85.1355,"MEAN_ANOMALY":274.997,"EPHEMERIS_TYPE":0,"CLASSIFICATION_TYPE":"U","NORAD_CAT_ID":45151,"ELEMENT_SET_NO":999,"REV_AT_EPOCH":29707,"BSTAR":0.0013300573,"MEAN_MOTION_DOT":4.84e-6,"MEAN_MOTION_DDOT":0},{"OBJECT_NAME":"ONEWEB-0047","OBJECT_ID":"2020-008X","EPOCH":"2026-03-07T12:24:53.448192","MEAN_MOTION":13.1037303,"ECCENTRICITY":0.00018924,"INCLINATION":87.8765,"RA_OF_ASC_NODE":56.5061,"ARG_OF_PERICENTER":92.4164,"MEAN_ANOMALY":267.718,"EPHEMERIS_TYPE":0,"CLASSIFICATION_TYPE":"U","NORAD_CAT_ID":45152,"ELEMENT_SET_NO":999,"REV_AT_EPOCH":29488,"BSTAR":-0.00018654616,"MEAN_MOTION_DOT":-5.2e-7,"MEAN_MOTION_DDOT":0},{"OBJECT_NAME":"ONEWEB-0048","OBJECT_ID":"2020-008Y","EPOCH":"2026-03-07T12:17:43.239264","MEAN_MOTION":13.10368465,"ECCENTRICITY":0.00018584,"INCLINATION":87.8764,"RA_OF_ASC_NODE":56.5344,"ARG_OF_PERICENTER":89.0414,"MEAN_ANOMALY":271.0926,"EPHEMERIS_TYPE":0,"CLASSIFICATION_TYPE":"U","NORAD_CAT_ID":45153,"ELEMENT_SET_NO":999,"REV_AT_EPOCH":29449,"BSTAR":0.00037543427,"MEAN_MOTION_DOT":1.44e-6,"MEAN_MOTION_DDOT":0},{"OBJECT_NAME":"ONEWEB-0049","OBJECT_ID":"2020-008Z","EPOCH":"2026-03-07T12:22:17.830560","MEAN_MOTION":13.10369018,"ECCENTRICITY":0.00017969,"INCLINATION":87.876,"RA_OF_ASC_NODE":56.5216,"ARG_OF_PERICENTER":72.1127,"MEAN_ANOMALY":288.0196,"EPHEMERIS_TYPE":0,"CLASSIFICATION_TYPE":"U","NORAD_CAT_ID":45154,"ELEMENT_SET_NO":999,"REV_AT_EPOCH":29471,"BSTAR":7.7197498e-5,"MEAN_MOTION_DOT":4.0e-7,"MEAN_MOTION_DDOT":0},{"OBJECT_NAME":"ONEWEB-0051","OBJECT_ID":"2020-008AA","EPOCH":"2026-03-07T11:00:03.345984","MEAN_MOTION":13.11415672,"ECCENTRICITY":0.00018193,"INCLINATION":87.8862,"RA_OF_ASC_NODE":41.2916,"ARG_OF_PERICENTER":84.5587,"MEAN_ANOMALY":275.5748,"EPHEMERIS_TYPE":0,"CLASSIFICATION_TYPE":"U","NORAD_CAT_ID":45155,"ELEMENT_SET_NO":999,"REV_AT_EPOCH":29775,"BSTAR":0.001468763,"MEAN_MOTION_DOT":5.33e-6,"MEAN_MOTION_DDOT":0},{"OBJECT_NAME":"ONEWEB-0052","OBJECT_ID":"2020-008AB","EPOCH":"2026-03-07T12:22:26.498208","MEAN_MOTION":13.0987059,"ECCENTRICITY":0.00017158,"INCLINATION":87.8769,"RA_OF_ASC_NODE":56.4936,"ARG_OF_PERICENTER":72.694,"MEAN_ANOMALY":287.4375,"EPHEMERIS_TYPE":0,"CLASSIFICATION_TYPE":"U","NORAD_CAT_ID":45156,"ELEMENT_SET_NO":999,"REV_AT_EPOCH":29462,"BSTAR":-2.8360932e-5,"MEAN_MOTION_DOT":3.0e-8,"MEAN_MOTION_DDOT":0},{"OBJECT_NAME":"ONEWEB-0053","OBJECT_ID":"2020-008AC","EPOCH":"2026-03-07T11:49:03.646848","MEAN_MOTION":13.10373914,"ECCENTRICITY":0.00014106,"INCLINATION":87.8769,"RA_OF_ASC_NODE":56.5351,"ARG_OF_PERICENTER":74.8025,"MEAN_ANOMALY":285.3258,"EPHEMERIS_TYPE":0,"CLASSIFICATION_TYPE":"U","NORAD_CAT_ID":45157,"ELEMENT_SET_NO":999,"REV_AT_EPOCH":29459,"BSTAR":0.0019815402,"MEAN_MOTION_DOT":7.04e-6,"MEAN_MOTION_DDOT":0},{"OBJECT_NAME":"ONEWEB-0054","OBJECT_ID":"2020-008AD","EPOCH":"2026-03-07T12:39:13.454784","MEAN_MOTION":13.10371602,"ECCENTRICITY":0.00018446,"INCLINATION":87.877,"RA_OF_ASC_NODE":56.5032,"ARG_OF_PERICENTER":84.7016,"MEAN_ANOMALY":275.4322,"EPHEMERIS_TYPE":0,"CLASSIFICATION_TYPE":"U","NORAD_CAT_ID":45158,"ELEMENT_SET_NO":999,"REV_AT_EPOCH":29471,"BSTAR":-0.0017062808,"MEAN_MOTION_DOT":-5.83e-6,"MEAN_MOTION_DDOT":0},{"OBJECT_NAME":"ONEWEB-0056","OBJECT_ID":"2020-008AE","EPOCH":"2026-03-07T12:11:45.391200","MEAN_MOTION":13.10369981,"ECCENTRICITY":0.00019179,"INCLINATION":87.8771,"RA_OF_ASC_NODE":56.5066,"ARG_OF_PERICENTER":81.0497,"MEAN_ANOMALY":279.0847,"EPHEMERIS_TYPE":0,"CLASSIFICATION_TYPE":"U","NORAD_CAT_ID":45159,"ELEMENT_SET_NO":999,"REV_AT_EPOCH":29486,"BSTAR":0.0010642072,"MEAN_MOTION_DOT":3.84e-6,"MEAN_MOTION_DDOT":0},{"OBJECT_NAME":"ONEWEB-0057","OBJECT_ID":"2020-008AF","EPOCH":"2026-03-07T12:22:43.875840","MEAN_MOTION":13.10368003,"ECCENTRICITY":0.00016208,"INCLINATION":87.8765,"RA_OF_ASC_NODE":56.5151,"ARG_OF_PERICENTER":83.1374,"MEAN_ANOMALY":276.9938,"EPHEMERIS_TYPE":0,"CLASSIFICATION_TYPE":"U","NORAD_CAT_ID":45160,"ELEMENT_SET_NO":999,"REV_AT_EPOCH":29503,"BSTAR":0.0021802107,"MEAN_MOTION_DOT":7.74e-6,"MEAN_MOTION_DDOT":0}]
