ONEWEB-0035             
1 45143U 20008N   26066.52806398 -.00000498  00000+0 -14635-2 0  9991
2 45143  87.8762  56.5218 0001921  88.3760 271.7588 13.10370919294624
ONEWEB-0036             
1 45144U 20008P   26066.52713319 -.00000613  00000+0 -18081-2 0  9990
2 45144  87.8776  56.4929 0001624  81.9508 278.1803 13.09813851295051
ONEWEB-0038             
1 45145U 20008Q   26066.61787924  .00000338  00000+0  91802-3 0  9999
2 45145  87.8867  41.2597 0002135 134.0146 226.1158 13.11416327297016
ONEWEB-0039             
1 45146U 20008R   26066.50069477  .00000630  00000+0  17679-2 0  9998
2 45146  87.8778  56.5110 0001295  85.6861 274.4415 13.10372326294848
ONEWEB-0040             
1 45147U 20008S   26066.49406192  .00000679  00000+0  19095-2 0  9993
2 45147  87.8768  56.5290 0001797  90.2087 269.9247 13.10373873294543
ONEWEB-0043             
1 45149U 20008U   26066.49571491  .00000630  00000+0  17669-2 0  9992
2 45149  87.8774  56.5116 0001263  81.8798 278.2473 13.10373612294862
ONEWEB-0044             
1 45150U 20008V   26066.52391712 -.00000393  00000+0 -11614-2 0  9996
2 45150  87.8774  56.5018 0001645  88.8700 271.2616 13.10370330295169
ONEWEB-0045             
1 45151U 20008W   26066.46006498  .00000484  00000+0  13301-2 0  9998
2 45151  87.8868  41.2782 0001720  85.1355 274.9970 13.11415354297075
ONEWEB-0047             
1 45152U 20008X   26066.51728528 -.00000052  00000+0 -18655-3 0  9991
2 45152  87.8765  56.5061 0001892  92.4164 267.7180 13.10373030294882
ONEWEB-0048             
1 45153U 20008Y   26066.51230601  .00000144  00000+0  37543-3 0  9999
2 45153  87.8764  56.5344 0001858  89.0414 271.0926 13.10368465294497
ONEWEB-0049             
1 45154U 20008Z   26066.51548415  .00000040  00000+0  77197-4 0  9990
2 45154  87.8760  56.5216 0001796  72.1127 288.0196 13.10369018294714
ONEWEB-0051             
1 45155U 20008AA  26066.45837206  .00000533  00000+0  14688-2 0  9994
2 45155  87.8862  41.2916 0001819  84.5587 275.5748 13.11415672297759
ONEWEB-0052             
1 45156U 20008AB  26066.51558447  .00000003  00000+0 -28361-4 0  9997
2 45156  87.8769  56.4936 0001715  72.6940 287.4375 13.09870590294624
ONEWEB-0053             
1 45157U 20008AC  26066.49240332  .00000704  00000+0  19815-2 0  9995
2 45157  87.8769  56.5351 0001410  74.8025 285.3258 13.10373914294590
ONEWEB-0054             
1 45158U 20008AD  26066.52723906 -.00000583  00000+0 -17063-2 0  9993
2 45158  87.8770  56.5032 0001844  84.7016 275.4322 13.10371602294718
ONEWEB-0056             
1 45159U 20008AE  26066.50816425  .00000384  00000+0  10642-2 0  9994
2 45159  87.8771  56.5066 0001917  81.0497 279.0847 13.10369981294866
ONEWEB-0057             
1 45160U 20008AF  26066.51578560  .00000774  00000+0  21802-2 0  9995
2 45160  87.8765  56.5151 0001620  83.1374 276.9938 13.10368003295035
